NORAD_CAT_ID,OBJECT_NAME,OBJECT_TYPE,EPOCH,MEAN_MOTION,ECCENTRICITY,INCLINATION,RA_OF_ASC_NODE,ARG_OF_PERICENTER,MEAN_ANOMALY,BSTAR,MEAN_MOTION_DOT,MEAN_MOTION_DDOT,TLE_LINE0,TLE_LINE1,TLE_LINE2,SEMIMAJOR_AXIS,PERIOD,APOGEE,PERIGEE,DECAYED
53937.0,STARLINK-4765,PAYLOAD,2023-03-27 11:55:44,15.08871499,0.0001125,53.2184,94.4142,88.2868,271.8253,0.0010797,0.00016952,0.0,0 STARLINK-4765,1 53937U 22119BD  23086.49704351  .00016952  00000-0  10797-2 0  9993,2 53937  53.2184  94.4142 0001125  88.2868 271.8253 15.08871499 28915,6917.784,95.436,540.427,538.871,0.0
53937.0,STARLINK-4765,PAYLOAD,2023-03-28 03:49:35,15.0886353,0.0001183,53.2187,91.4396,93.7361,266.3767,0.00027286,4.06e-05,0.0,0 STARLINK-4765,1 53937U 22119BD  23087.15943532  .00004060  00000-0  27286-3 0  9992,2 53937  53.2187  91.4396 0001183  93.7361 266.3767 15.08863530 29017,6917.808,95.436,540.492,538.855,0.0
53937.0,STARLINK-4765,PAYLOAD,2023-03-28 11:46:30,15.08870381,0.0001521,53.2189,89.9497,121.6221,238.4919,0.00039674,6.037e-05,0.0,0 STARLINK-4765,1 53937U 22119BD  23087.49062729  .00006037  00000-0  39674-3 0  9999,2 53937  53.2189  89.9497 0001521 121.6221 238.4919 15.08870381 29487,6917.788,95.436,540.705,538.6,0.0
53937.0,STARLINK-4765,PAYLOAD,2023-03-29 03:40:21,15.08849069,0.0001295,53.2189,86.9796,91.546,268.568,-6.1634e-05,-1.269e-05,0.0,0 STARLINK-4765,1 53937U 22119BD  23088.15302908 -.00001269  00000-0 -61634-4 0  9995,2 53937  53.2189  86.9796 0001295  91.5460 268.5680 15.08849069 29167,6917.853,95.437,540.614,538.822,0.0
53937.0,STARLINK-4765,PAYLOAD,2023-03-29 11:37:17,15.08854636,0.000128,53.2197,85.4923,89.9899,270.124,0.0001301,1.784e-05,0.0,0 STARLINK-4765,1 53937U 22119BD  23088.48422641  .00001784  00000-0  13010-3 0  9992,2 53937  53.2197  85.4923 0001280  89.9899 270.1240 15.08854636 29632,6917.836,95.437,540.586,538.815,0.0
53937.0,STARLINK-4765,PAYLOAD,2023-03-29 16:23:27,15.08836251,0.0001618,53.2199,84.5977,94.3096,265.8081,-0.00023746,-4.065e-05,0.0,0 STARLINK-4765,1 53937U 22119BD  23088.68295162 -.00004065  00000-0 -23746-3 0  9994,2 53937  53.2199  84.5977 0001618  94.3096 265.8081 15.08836251 29241,6917.892,95.438,540.876,538.638,0.0
53937.0,STARLINK-4765,PAYLOAD,2023-03-30 09:52:41,15.08852025,0.0001168,53.2187,81.3296,94.0176,266.095,0.0003777,5.73e-05,0.0,0 STARLINK-4765,1 53937U 22119BD  23089.41158759  .00005730  00000-0  37770-3 0  9996,2 53937  53.2187  81.3296 0001168  94.0176 266.0950 15.08852025 29350,6917.844,95.437,540.517,538.901,0.0
53937.0,STARLINK-4765,PAYLOAD,2023-03-31 11:18:52,15.08826952,0.0001024,53.2183,76.5722,103.0747,257.036,6.2876e-06,-1.88e-06,0.0,0 STARLINK-4765,1 53937U 22119BD  23090.47143760 -.00000188  00000-0  62876-5 0  9990,2 53937  53.2183  76.5722 0001024 103.0747 257.0360 15.08826952 29515,6917.92,95.438,540.494,539.077,0.0
53937.0,STARLINK-4765,PAYLOAD,2023-04-01 03:12:44,15.08814332,0.0001227,53.2176,73.6001,107.8436,252.269,7.3942e-05,8.88e-06,0.0,0 STARLINK-4765,1 53937U 22119BD  23091.13385289  .00000888  00000-0  73942-4 0  9999,2 53937  53.2176  73.6001 0001227 107.8436 252.2690 15.08814332 29610,6917.959,95.439,540.673,538.975,0.0
53937.0,STARLINK-4765,PAYLOAD,2023-04-01 07:58:54,15.08823453,0.0001377,53.2181,72.7069,95.8743,264.2406,0.00042219,6.435e-05,0.0,0 STARLINK-4765,1 53937U 22119BD  23091.33257517  .00006435  00000-0  42219-3 0  9999,2 53937  53.2181  72.7069 0001377  95.8743 264.2406 15.08823453 30066,6917.931,95.439,540.749,538.843,0.0
53937.0,STARLINK-4765,PAYLOAD,2023-04-01 15:55:50,15.08836725,0.0001324,53.2185,71.2205,90.8041,269.3103,0.00091852,0.00014359,0.0,0 STARLINK-4765,1 53937U 22119BD  23091.66377706  .00014359  00000-0  91852-3 0  9999,2 53937  53.2185  71.2205 0001324  90.8041 269.3103 15.08836725 29697,6917.89,95.438,540.671,538.839,0.0
53937.0,STARLINK-4765,PAYLOAD,2023-04-02 04:38:54,15.08873953,0.0001262,53.218,68.8413,86.8705,273.2432,0.0016348,0.0002585,0.0,0 STARLINK-4765,1 53937U 22119BD  23092.19368992  .00025850  00000-0  16348-2 0  9999,2 53937  53.2180  68.8413 0001262  86.8705 273.2432 15.08873953 29770,6917.777,95.435,540.515,538.769,0.0
53937.0,STARLINK-4765,PAYLOAD,2023-04-02 07:49:40,15.08881279,0.0001269,53.2181,68.247,85.6602,274.4535,0.0017996,0.00028501,0.0,0 STARLINK-4765,1 53937U 22119BD  23092.32616682  .00028501  00000-0  17996-2 0  9992,2 53937  53.2181  68.2470 0001269  85.6602 274.4535 15.08881279 30216,6917.754,95.435,540.497,538.741,0.0
53937.0,STARLINK-4765,PAYLOAD,2023-04-02 15:46:36,15.08871613,6.73e-05,53.2189,66.76,99.9387,260.1681,0.0010862,0.00017056,0.0,0 STARLINK-4765,1 53937U 22119BD  23092.65736141  .00017056  00000-0  10862-2 0  9999,2 53937  53.2189  66.7600 0000673  99.9387 260.1681 15.08871613 29840,6917.784,95.436,540.114,539.183,0.0
53937.0,STARLINK-4765,PAYLOAD,2023-04-02 22:08:08,15.08871231,0.0002005,53.2183,65.5705,89.2817,270.8405,0.0011024,0.00017315,0.0,0 STARLINK-4765,1 53937U 22119BD  23092.92232263  .00017315  00000-0  11024-2 0  9994,2 53937  53.2183  65.5705 0002005  89.2817 270.8405 15.08871231 30309,6917.785,95.436,541.037,538.263,0.0
53937.0,STARLINK-4765,PAYLOAD,2023-04-03 04:29:40,15.08867304,0.0001334,53.2193,64.3802,100.7162,259.3981,0.00054833,8.456e-05,0.0,0 STARLINK-4765,1 53937U 22119BD  23093.18727763  .00008456  00000-0  54833-3 0  9999,2 53937  53.2193  64.3802 0001334 100.7162 259.3981 15.08867304 29924,6917.797,95.436,540.585,538.739,0.0
53937.0,STARLINK-4765,PAYLOAD,2023-04-03 15:37:22,15.08872588,9.58e-05,53.2185,62.3004,90.8204,269.2898,0.00094853,0.00014854,0.0,0 STARLINK-4765,1 53937U 22119BD  23093.65095099  .00014854  00000-0  94853-3 0  9996,2 53937  53.2185  62.3004 0000958  90.8204 269.2898 15.08872588 30417,6917.781,95.435,540.309,538.983,0.0
53937.0,STARLINK-4765,PAYLOAD,2023-04-04 04:20:16,15.09243767,0.000164,53.2191,59.9218,86.4262,273.6918,0.010641,0.00175233,0.0,0 STARLINK-4765,1 53937U 22119BD  23094.18074863  .00175233  00000-0  10641-1 0  9991,2 53937  53.2191  59.9218 0001640  86.4262 273.6918 15.09243767 30073,6916.647,95.412,539.646,537.377,0.0
53937.0,STARLINK-4765,PAYLOAD,2023-04-04 12:16:58,15.09526212,0.0001732,53.2192,58.4333,64.8995,295.2177,0.0092714,0.00153354,0.0,0 STARLINK-4765,1 53937U 22119BD  23094.51178565  .00153354  00000-0  92714-2 0  9994,2 53937  53.2192  58.4333 0001732  64.8995 295.2177 15.09526212 30123,6915.784,95.394,538.847,536.451,0.0
53937.0,STARLINK-4765,PAYLOAD,2023-04-05 04:10:02,15.10206049,0.0001892,53.2206,55.4572,119.1179,241.0003,0.009905,0.00167275,0.0,0 STARLINK-4765,1 53937U 22119BD  23095.17364253  .00167275  00000-0  99050-2 0  9995,2 53937  53.2206  55.4572 0001892 119.1179 241.0003 15.10206049 30229,6913.708,95.351,536.881,534.265,0.0
53937.0,STARLINK-4765,PAYLOAD,2023-04-05 14:00:01,15.10472497,0.0001374,53.2188,53.6112,96.6707,332.4712,-0.0022248,-0.00037135,0.0,0 STARLINK-4765,1 53937U 22119BD  23095.58334491 -.00037135  00000-0 -22248-2 0  9999,2 53937  53.2188  53.6112 0001374  96.6707 332.4712 15.10472497 30289,6912.895,95.334,535.71,533.81,0.0
53937.0,STARLINK-4765,PAYLOAD,2023-04-05 22:00:00,15.10464411,0.0001439,53.2192,52.1108,105.9594,336.7177,0.0016658,0.00027537,0.0,0 STARLINK-4765,1 53937U 22119BD  23095.91667824  .00027537  00000-0  16658-2 0  9996,2 53937  53.2192  52.1108 0001439 105.9594 336.7177 15.10464411  1303,6912.92,95.335,535.779,533.79,0.0
53937.0,STARLINK-4765,PAYLOAD,2023-04-06 06:00:00,15.10459482,0.0001398,53.2191,50.6125,101.5568,354.6847,9.6734e-05,1.317e-05,0.0,0 STARLINK-4765,1 53937U 22119BD  23096.25001157  .00001317  00000-0  96734-4 0  9998,2 53937  53.2191  50.6125 0001398 101.5568 354.6847 15.10459482 30386,6912.935,95.335,535.766,533.833,0.0
53937.0,STARLINK-4765,PAYLOAD,2023-04-06 14:00:01,15.10467618,0.0001317,53.2186,49.1111,98.9661,10.8701,0.0003693,5.859e-05,0.0,0 STARLINK-4765,1 53937U 22119BD  23096.58335648  .00005859  00000-0  36930-3 0  9995,2 53937  53.2186  49.1111 0001317  98.9661  10.8701 15.10467618  1302,6912.91,95.335,535.685,533.864,0.0
53937.0,STARLINK-4765,PAYLOAD,2023-04-06 22:00:00,15.10487021,0.0001359,53.2187,47.6109,101.9357,21.3798,0.00081103,0.00013238,0.0,0 STARLINK-4765,1 53937U 22119BD  23096.91667824  .00013238  00000-0  81103-3 0  9998,2 53937  53.2187  47.6109 0001359 101.9357  21.3798 15.10487021  1309,6912.851,95.333,535.655,533.776,0.0
53937.0,STARLINK-4765,PAYLOAD,2023-04-07 14:00:01,15.10466174,0.0001257,53.218,44.611,94.8747,55.5856,0.00081042,0.0001322,0.0,0 STARLINK-4765,1 53937U 22119BD  23097.58334491  .00013220  00000-0  81042-3 0  9996,2 53937  53.2180  44.6110 0001257  94.8747  55.5856 15.10466174 30583,6912.914,95.335,535.648,533.91,0.0
53937.0,STARLINK-4765,PAYLOAD,2023-04-08 14:00:01,15.10454919,9.9e-05,53.2176,40.111,93.0303,98.1355,0.0011782,0.00019364,0.0,0 STARLINK-4765,1 53937U 22119BD  23098.58334491  .00019364  00000-0  11782-2 0  9995,2 53937  53.2176  40.1110 0000990  93.0303  98.1355 15.10454919  1300,6912.949,95.336,535.498,534.129,0.0
53937.0,STARLINK-4765,PAYLOAD,2023-04-08 22:00:00,15.10501264,0.000105,53.2178,38.6112,93.7878,110.917,-0.0015579,-0.00026151,0.0,0 STARLINK-4765,1 53937U 22119BD  23098.91667824 -.00026151  00000-0 -15579-2 0  9993,2 53937  53.2178  38.6112 0001050  93.7878 110.9170 15.10501264 30786,6912.807,95.333,535.398,533.946,0.0
53937.0,STARLINK-4765,PAYLOAD,2023-04-09 05:02:16,15.10481103,0.0001165,53.2178,37.2899,90.8405,269.2722,0.0001439,2.104e-05,0.0,0 STARLINK-4765,1 53937U 22119BD  23099.20991219  .00002104  00000-0  14390-3 0  9995,2 53937  53.2178  37.2899 0001165  90.8405 269.2722 15.10481103 31257,6912.869,95.334,535.539,533.928,0.0
53937.0,STARLINK-4765,PAYLOAD,2023-04-09 19:19:49,15.10475127,0.00015,53.2183,34.6133,71.4678,288.6477,8.3062e-05,1.09e-05,0.0,0 STARLINK-4765,1 53937U 22119BD  23099.80543186  .00001090  00000-0  83062-4 0  9993,2 53937  53.2183  34.6133 0001500  71.4678 288.6477 15.10475127 31346,6912.887,95.334,535.789,533.715,0.0
